STARLINK-2418           
1 48097U 21027F   23326.56796118  .00009200  00000+0  63533-3 0  9992
2 48097  53.0537 314.0974 0001845  80.1375 279.9822 15.06421174146374
STARLINK-2421           
1 48098U 21027G   23326.27954455  .00004633  00000+0  32958-3 0  9993
2 48098  53.0541 325.3895 0001571  89.1544 270.9625 15.06417199146183
STARLINK-2428           
1 48099U 21027H   23326.26755571  .00002631  00000+0  19539-3 0  9997
2 48099  53.0548 335.4429 0001857  95.2551 264.8649 15.06415190145646
STARLINK-2430           
1 48100U 21027J   23326.36154405  .00004160  00000+0  29783-3 0  9991
2 48100  53.0542 315.0221 0001521  86.2029 273.9133 15.06420259146344
STARLINK-2436           
1 48101U 21027K   23326.29799009  .00006851  00000+0  47818-3 0  9997
2 48101  53.0545 325.5081 0001620  97.1092 263.0081 15.06416111146196
STARLINK-2437           
1 48102U 21027L   23326.38736443 -.00001056  00000+0 -52004-4 0  9999
2 48102  53.0542 314.9046 0001488  93.8133 266.3026 15.06394142146349
STARLINK-2438           
1 48103U 21027M   23326.20726678  .00045997  00000+0  17113-2 0  9990
2 48103  53.0534 294.1759 0004987 106.0052 254.1495 15.27066318146625
STARLINK-2439           
1 48104U 21027N   23326.27447359  .00003941  00000+0  28318-3 0  9997
2 48104  53.0534 320.4125 0002029  92.7801 267.3420 15.06419277146261
STARLINK-2440           
1 48105U 21027P   23326.24819601  .00002634  00000+0  19550-3 0  9994
2 48105  53.0563 265.5269 0001561 100.2806 259.8359 15.06428411147024
STARLINK-2442           
1 48106U 21027Q   23326.36523116  .00002182  00000+0  16524-3 0  9997
2 48106  53.0558 315.0176 0001546  86.9961 273.1205 15.06419767146349
STARLINK-2443           
1 48107U 21027R   23326.24728162  .00008376  00000+0  58009-3 0  9998
2 48107  53.0542 315.5345 0001500  90.8258 269.2903 15.06426570146328
STARLINK-2444           
1 48108U 21027S   23326.41959065  .00033141  00000+0  22293-2 0  9999
2 48108  53.0544 324.7612 0001602 101.3157 258.8012 15.06466705146205
STARLINK-2445           
1 48109U 21027T   23326.58334491  .00032120  00000+0  19965-3 0  9997
2 48109  53.0560 327.3086 0001425  84.3744 183.3005 15.76709662145788
STARLINK-2447           
1 48110U 21027U   23326.40854079  .00004442  00000+0  31676-3 0  9998
2 48110  53.0538 324.8108 0001428  95.7814 264.3338 15.06421904146210
STARLINK-2448           
1 48111U 21027V   23326.26847472  .00003827  00000+0  27558-3 0  9992
2 48111  53.0547 325.4112 0001517  91.6100 268.5063 15.06415780146198
STARLINK-2449           
1 48112U 21027W   23326.46061943  .00004362  00000+0  31133-3 0  9995
2 48112  53.0547 339.7409 0001301  99.1077 261.0059 15.06424343146001
STARLINK-2450           
1 48113U 21027X   23326.26387215  .00009126  00000+0  63048-3 0  9990
2 48113  53.0543 335.4579 0001550  97.0063 263.1102 15.06415770146036
STARLINK-2451           
1 48114U 21027Y   23326.06997044  .00004046  00000+0  28686-4 0  9992
2 48114  53.0387 272.3858 0001599  75.5448 284.5748 15.76746648146911
STARLINK-2452           
1 48115U 21027Z   23326.38642647  .00003587  00000+0  25946-3 0  9998
2 48115  53.0549 324.9205 0001600  94.9274 265.1897 15.06417382146202
STARLINK-2454           
1 48116U 21027AA  23326.32654380 -.00002278  00000+0 -13414-3 0  9995
2 48116  53.0554 335.1768 0001409 103.9439 256.1707 15.06392465146055
STARLINK-2455           
1 48117U 21027AB  23326.29794224  .00006135  00000+0  43010-3 0  9993
2 48117  53.0541 315.3003 0001294  86.7762 273.3375 15.06428141146337
STARLINK-2458           
1 48118U 21027AC  23326.37629094  .00005008  00000+0  35466-3 0  9999
2 48118  53.0540 314.9545 0001520  88.6214 271.4949 15.06422279146341
STARLINK-2459           
1 48119U 21027AD  23326.23896267  .00004072  00000+0  29195-3 0  9995
2 48119  53.0537 315.5630 0001467  93.4054 266.7103 15.06419073146310
STARLINK-2460           
1 48120U 21027AE  23326.24544337  .00006762  00000+0  47212-3 0  9994
2 48120  53.0546 335.5396 0001582  97.4666 262.6503 15.06422443146059
STARLINK-2462           
1 48121U 21027AF  23326.41591529  .00008610  00000+0  59575-3 0  9998
2 48121  53.0544 324.7738 0001606  96.7093 263.4079 15.06426546146203
STARLINK-2463           
1 48122U 21027AG  23326.28183905  .00011373  00000+0  78067-3 0  9996
2 48122  53.0550 320.3479 0001499  97.0367 263.0792 15.06423109146269
STARLINK-2464           
1 48123U 21027AH  23326.35786703  .00006818  00000+0  47595-3 0  9990
2 48123  53.0544 315.0392 0001473  89.8593 270.2564 15.06419219146343
STARLINK-2465           
1 48124U 21027AJ  23326.42328766  .00010283  00000+0  70753-3 0  9993
2 48124  53.0546 324.7427 0001671  93.2691 266.8490 15.06436906146206
STARLINK-2466           
1 48125U 21027AK  23326.43713485  .00003880  00000+0  27907-3 0  9999
2 48125  53.0541 334.9201 0001453  95.7391 264.3764 15.06420316146077
STARLINK-2467           
1 48126U 21027AL  23326.39103202  .00004937  00000+0  34990-3 0  9999
2 48126  53.0554 314.8866 0001665 102.3422 257.7753 15.06424654146355
STARLINK-2468           
1 48127U 21027AM  23326.24913088  .00006364  00000+0  44551-3 0  9995
2 48127  53.0545 335.5260 0001619  95.0238 265.0936 15.06419313146043
STARLINK-2469           
1 48128U 21027AN  23326.16344582  .00017730  00000+0  12052-2 0  9993
2 48128  53.0536 265.9982 0001570  81.6508 278.4659 15.06429819147007
STARLINK-2471           
1 48129U 21027AP  23326.30810368  .00010876  00000+0  74743-3 0  9990
2 48129  53.0549 335.2614 0001601 100.1515 259.9655 15.06424387146054
STARLINK-2472           
1 48130U 21027AQ  23326.36382278  .00002018  00000+0  15425-3 0  9993
2 48130  53.0549 340.0148 0001474  88.2480 271.8678 15.06420674145992
STARLINK-2473           
1 48131U 21027AR  23326.38366038  .00004726  00000+0  33575-3 0  9996
2 48131  53.0540 314.9228 0001635  90.7443 269.3733 15.06421868146349
STARLINK-2474           
1 48132U 21027AS  23326.29704266  .00003679  00000+0  26564-3 0  9992
2 48132  53.0551 335.3084 0001416  94.4651 265.6500 15.06417141146045
STARLINK-2475           
1 48133U 21027AT  23326.42604971  .00004018  00000+0  28838-3 0  9994
2 48133  53.0559 334.7249 0001635  87.2706 272.8470 15.06418150146074
STARLINK-2476           
1 48134U 21027AU  23326.41130697  .00003150  00000+0  23018-3 0  9994
2 48134  53.0548 334.8018 0001546  96.2581 263.8584 15.06415246146068
STARLINK-2478           
1 48135U 21027AV  23326.34636439  .00012493  00000+0  85562-3 0  9994
2 48135  53.0552 340.2550 0001486 100.8735 259.2422 15.06420572145980
STARLINK-2479           
1 48136U 21027AW  23326.43615983  .00006044  00000+0  42394-3 0  9997
2 48136  53.0554 334.6744 0001563  94.8643 265.2524 15.06429747146075
STARLINK-2480           
1 48137U 21027AX  23326.26202378  .00005034  00000+0  35640-3 0  9993
2 48137  53.0540 315.4388 0001583  94.9650 265.1520 15.06424911146324
STARLINK-2481           
1 48138U 21027AY  23326.28967484  .00003700  00000+0  26707-3 0  9994
2 48138  53.0547 335.3429 0001454  94.3932 265.7223 15.06414067146050
STARLINK-2482           
1 48139U 21027AZ  23326.34680128  .00001169  00000+0  97344-4 0  9992
2 48139  53.0548 315.0868 0001501  97.9700 262.1460 15.06412247146343
STARLINK-2483           
1 48140U 21027BA  23326.40629791  .00007620  00000+0  55311-3 0  9995
2 48140  53.0549 335.0847 0001496 100.3942 259.7215 15.04787514146064
STARLINK-2484           
1 48141U 21027BB  23326.33758692  .00002940  00000+0  21613-3 0  9999
2 48141  53.0554 335.1317 0001481 105.7862 254.3291 15.06414818146070
STARLINK-2485           
1 48142U 21027BC  23326.21042487  .00001618  00000+0  12742-3 0  9999
2 48142  53.0540 315.7002 0001467  95.5301 264.5856 15.06414524146321
STARLINK-2486           
1 48143U 21027BD  23326.13533227  .00016447  00000+0  11195-2 0  9994
2 48143  53.0560 271.1329 0001866 114.9410 245.1773 15.06432655146936
STARLINK-2487           
1 48144U 21027BE  23326.35048614  .00003893  00000+0  27993-3 0  9995
2 48144  53.0557 315.0688 0001529  98.4288 261.6875 15.06418825146337
STARLINK-2488           
1 48145U 21027BF  23326.35418101 -.00000084  00000+0  13281-4 0  9994
2 48145  53.0543 315.0558 0001486  90.1037 270.0122 15.06405760146346
STARLINK-2489           
1 48146U 21027BG  23326.41867264  .00001924  00000+0  14795-3 0  9993
2 48146  53.0554 334.7740 0001416  96.4134 263.7016 15.06417739146070
STARLINK-2490           
1 48147U 21027BH  23326.35002985  .00010343  00000+0  71186-3 0  9990
2 48147  53.0550 340.0745 0001474  90.6554 269.4603 15.06420576145996
STARLINK-2491           
1 48148U 21027BJ  23326.31915667  .00004140  00000+0  29654-3 0  9998
2 48148  53.0563 335.2103 0001598  96.8544 263.2627 15.06419080146042
STARLINK-2492           
1 48149U 21027BK  23326.19936502  .00005413  00000+0  38176-3 0  9999
2 48149  53.0559 315.7490 0001569 103.5260 256.5904 15.06423397146318
STARLINK-2493           
1 48150U 21027BL  23326.26940180  .00006890  00000+0  48062-3 0  9991
2 48150  53.0546 315.4347 0001580  94.4156 265.7014 15.06426844146335
STARLINK-2503           
1 48151U 21027BM  23326.20674132  .00004110  00000+0  29446-3 0  9995
2 48151  53.0544 315.7154 0001467  96.7005 263.4151 15.06420293146323
STARLINK-2567           
1 48276U 21036A   23325.91602546  .00006563  00000+0  45890-3 0  9995
2 48276  53.0534 212.0216 0001522  91.9142 268.2022 15.06414152142388
STARLINK-2569           
1 48277U 21036B   23326.77991472  .00000911  00000+0  80073-4 0  9994
2 48277  53.0528 173.1431 0002211  91.0536 269.0706 15.06398841143589
STARLINK-2543           
1 48278U 21036C   23326.81725618  .00003782  00000+0  27267-3 0  9991
2 48278  53.0533 188.0546 0001384 119.6448 240.4678 15.06399710143371
STARLINK-2580           
1 48279U 21036D   23326.80987222  .00000310  00000+0  39685-4 0  9994
2 48279  53.0526 188.0039 0001473  85.3831 274.7326 15.06388873143373
